CCSDS_OMM_VERS = 2.0
CREATION_DATE  = 
ORIGINATOR     = 

OBJECT_NAME    = HULIANWANG DIGUI 14A
OBJECT_ID      = 2025-285A
CENTER_NAME    = EARTH
REF_FRAME      = TEME
TIME_SYSTEM    = UTC
MEAN_ELEMENT_THEORY = SGP/SGP4

EPOCH          = 2025-12-09T12:03:07.617600
MEAN_MOTION    = 14.05465952
ECCENTRICITY   = .0008094
INCLINATION    = 50.0033
RA_OF_ASC_NODE = 130.4860
ARG_OF_PERICENTER = 271.6423
MEAN_ANOMALY   = 88.3555

EPHEMERIS_TYPE = 0
CLASSIFICATION_TYPE = U
NORAD_CAT_ID   = 66915
ELEMENT_SET_NO = 999
REV_AT_EPOCH   = 45
BSTAR          = .13197E-4
MEAN_MOTION_DOT = -.13E-5
MEAN_MOTION_DDOT = 0

CCSDS_OMM_VERS = 2.0
CREATION_DATE  = 
ORIGINATOR     = 

OBJECT_NAME    = HULIANWANG DIGUI 14B
OBJECT_ID      = 2025-285B
CENTER_NAME    = EARTH
REF_FRAME      = TEME
TIME_SYSTEM    = UTC
MEAN_ELEMENT_THEORY = SGP/SGP4

EPOCH          = 2025-12-09T12:02:58.135200
MEAN_MOTION    = 14.05512275
ECCENTRICITY   = .000695
INCLINATION    = 50.0044
RA_OF_ASC_NODE = 130.4865
ARG_OF_PERICENTER = 266.4133
MEAN_ANOMALY   = 93.5977

EPHEMERIS_TYPE = 0
CLASSIFICATION_TYPE = U
NORAD_CAT_ID   = 66916
ELEMENT_SET_NO = 999
REV_AT_EPOCH   = 45
BSTAR          = .13131E-4
MEAN_MOTION_DOT = -.131E-5
MEAN_MOTION_DDOT = 0

CCSDS_OMM_VERS = 2.0
CREATION_DATE  = 
ORIGINATOR     = 

OBJECT_NAME    = HULIANWANG DIGUI 14C
OBJECT_ID      = 2025-285C
CENTER_NAME    = EARTH
REF_FRAME      = TEME
TIME_SYSTEM    = UTC
MEAN_ELEMENT_THEORY = SGP/SGP4

EPOCH          = 2025-12-09T12:02:44.047680
MEAN_MOTION    = 14.05578338
ECCENTRICITY   = .0007532
INCLINATION    = 50.0010
RA_OF_ASC_NODE = 130.4824
ARG_OF_PERICENTER = 274.2340
MEAN_ANOMALY   = 85.7704

EPHEMERIS_TYPE = 0
CLASSIFICATION_TYPE = U
NORAD_CAT_ID   = 66917
ELEMENT_SET_NO = 999
REV_AT_EPOCH   = 45
BSTAR          = -.56673E-5
MEAN_MOTION_DOT = -.161E-5
MEAN_MOTION_DDOT = 0

CCSDS_OMM_VERS = 2.0
CREATION_DATE  = 
ORIGINATOR     = 

OBJECT_NAME    = HULIANWANG DIGUI 14D
OBJECT_ID      = 2025-285D
CENTER_NAME    = EARTH
REF_FRAME      = TEME
TIME_SYSTEM    = UTC
MEAN_ELEMENT_THEORY = SGP/SGP4

EPOCH          = 2025-12-09T12:02:20.940864
MEAN_MOTION    = 14.05702846
ECCENTRICITY   = .0006472
INCLINATION    = 50.0042
RA_OF_ASC_NODE = 130.4827
ARG_OF_PERICENTER = 269.1920
MEAN_ANOMALY   = 90.8244

EPHEMERIS_TYPE = 0
CLASSIFICATION_TYPE = U
NORAD_CAT_ID   = 66918
ELEMENT_SET_NO = 999
REV_AT_EPOCH   = 45
BSTAR          = .25232E-5
MEAN_MOTION_DOT = -.148E-5
MEAN_MOTION_DDOT = 0

CCSDS_OMM_VERS = 2.0
CREATION_DATE  = 
ORIGINATOR     = 

OBJECT_NAME    = HULIANWANG DIGUI 14E
OBJECT_ID      = 2025-285E
CENTER_NAME    = EARTH
REF_FRAME      = TEME
TIME_SYSTEM    = UTC
MEAN_ELEMENT_THEORY = SGP/SGP4

EPOCH          = 2025-12-09T12:02:17.003616
MEAN_MOTION    = 14.05714074
ECCENTRICITY   = .0007845
INCLINATION    = 50.0055
RA_OF_ASC_NODE = 130.4852
ARG_OF_PERICENTER = 280.5711
MEAN_ANOMALY   = 79.4311

EPHEMERIS_TYPE = 0
CLASSIFICATION_TYPE = U
NORAD_CAT_ID   = 66919
ELEMENT_SET_NO = 999
REV_AT_EPOCH   = 45
BSTAR          = -.91326E-5
MEAN_MOTION_DOT = -.167E-5
MEAN_MOTION_DDOT = 0

CCSDS_OMM_VERS = 2.0
CREATION_DATE  = 
ORIGINATOR     = 

OBJECT_NAME    = HULIANWANG DIGUI 14F
OBJECT_ID      = 2025-285F
CENTER_NAME    = EARTH
REF_FRAME      = TEME
TIME_SYSTEM    = UTC
MEAN_ELEMENT_THEORY = SGP/SGP4

EPOCH          = 2025-12-09T12:01:52.429728
MEAN_MOTION    = 14.05849245
ECCENTRICITY   = .0005825
INCLINATION    = 50.0088
RA_OF_ASC_NODE = 130.4870
ARG_OF_PERICENTER = 277.5630
MEAN_ANOMALY   = 82.4614

EPHEMERIS_TYPE = 0
CLASSIFICATION_TYPE = U
NORAD_CAT_ID   = 66920
ELEMENT_SET_NO = 999
REV_AT_EPOCH   = 45
BSTAR          = .13557E-3
MEAN_MOTION_DOT = .71E-6
MEAN_MOTION_DDOT = 0

CCSDS_OMM_VERS = 2.0
CREATION_DATE  = 
ORIGINATOR     = 

OBJECT_NAME    = HULIANWANG DIGUI 14G
OBJECT_ID      = 2025-285G
CENTER_NAME    = EARTH
REF_FRAME      = TEME
TIME_SYSTEM    = UTC
MEAN_ELEMENT_THEORY = SGP/SGP4

EPOCH          = 2025-12-09T12:01:45.618816
MEAN_MOTION    = 14.05882346
ECCENTRICITY   = .0006958
INCLINATION    = 50.0105
RA_OF_ASC_NODE = 130.4882
ARG_OF_PERICENTER = 284.1176
MEAN_ANOMALY   = 75.8956

EPHEMERIS_TYPE = 0
CLASSIFICATION_TYPE = U
NORAD_CAT_ID   = 66921
ELEMENT_SET_NO = 999
REV_AT_EPOCH   = 45
BSTAR          = .13129E-4
MEAN_MOTION_DOT = -.131E-5
MEAN_MOTION_DDOT = 0

CCSDS_OMM_VERS = 2.0
CREATION_DATE  = 
ORIGINATOR     = 

OBJECT_NAME    = HULIANWANG DIGUI 14H
OBJECT_ID      = 2025-285H
CENTER_NAME    = EARTH
REF_FRAME      = TEME
TIME_SYSTEM    = UTC
MEAN_ELEMENT_THEORY = SGP/SGP4

EPOCH          = 2025-12-09T12:01:23.894400
MEAN_MOTION    = 14.05997664
ECCENTRICITY   = .0006915
INCLINATION    = 50.0078
RA_OF_ASC_NODE = 130.4835
ARG_OF_PERICENTER = 290.3386
MEAN_ANOMALY   = 69.6776

EPHEMERIS_TYPE = 0
CLASSIFICATION_TYPE = U
NORAD_CAT_ID   = 66922
ELEMENT_SET_NO = 999
REV_AT_EPOCH   = 45
BSTAR          = -.80754E-5
MEAN_MOTION_DOT = -.166E-5
MEAN_MOTION_DDOT = 0

CCSDS_OMM_VERS = 2.0
CREATION_DATE  = 
ORIGINATOR     = 

OBJECT_NAME    = HULIANWANG DIGUI 14J
OBJECT_ID      = 2025-285J
CENTER_NAME    = EARTH
REF_FRAME      = TEME
TIME_SYSTEM    = UTC
MEAN_ELEMENT_THEORY = SGP/SGP4

EPOCH          = 2025-12-07T22:29:36.786048
MEAN_MOTION    = 14.06515715
ECCENTRICITY   = .00053876
INCLINATION    = 50.0075
RA_OF_ASC_NODE = 136.8754
ARG_OF_PERICENTER = 280.8946
MEAN_ANOMALY   = 79.1354

EPHEMERIS_TYPE = 0
CLASSIFICATION_TYPE = U
NORAD_CAT_ID   = 66923
ELEMENT_SET_NO = 999
REV_AT_EPOCH   = 23
BSTAR          = -.47305E-6
MEAN_MOTION_DOT = -.153E-5
MEAN_MOTION_DDOT = 0

CCSDS_OMM_VERS = 2.0
CREATION_DATE  = 
ORIGINATOR     = 

OBJECT_NAME    = CZ-8A R/B
OBJECT_ID      = 2025-285K
CENTER_NAME    = EARTH
REF_FRAME      = TEME
TIME_SYSTEM    = UTC
MEAN_ELEMENT_THEORY = SGP/SGP4

EPOCH          = 2025-12-09T10:44:51.268704
MEAN_MOTION    = 14.30499385
ECCENTRICITY   = .0119336
INCLINATION    = 50.0062
RA_OF_ASC_NODE = 130.1671
ARG_OF_PERICENTER = 95.1243
MEAN_ANOMALY   = 266.3306

EPHEMERIS_TYPE = 0
CLASSIFICATION_TYPE = U
NORAD_CAT_ID   = 66924
ELEMENT_SET_NO = 999
REV_AT_EPOCH   = 45
BSTAR          = .40197E-4
MEAN_MOTION_DOT = -.53E-6
MEAN_MOTION_DDOT = 0

