HULIANWANG DIGUI 14A    
1 66915U 25285A   25343.50217150 -.00000130  00000+0  13197-4 0  9996
2 66915  50.0033 130.4860 0008094 271.6423  88.3555 14.05465952   452
HULIANWANG DIGUI 14B    
1 66916U 25285B   25343.50206175 -.00000131  00000+0  13131-4 0  9991
2 66916  50.0044 130.4865 0006950 266.4133  93.5977 14.05512275   456
HULIANWANG DIGUI 14C    
1 66917U 25285C   25343.50189870 -.00000161  00000+0 -56673-5 0  9997
2 66917  50.0010 130.4824 0007532 274.2340  85.7704 14.05578338   452
HULIANWANG DIGUI 14D    
1 66918U 25285D   25343.50163126 -.00000148  00000+0  25232-5 0  9995
2 66918  50.0042 130.4827 0006472 269.1920  90.8244 14.05702846   459
HULIANWANG DIGUI 14E    
1 66919U 25285E   25343.50158569 -.00000167  00000+0 -91326-5 0  9990
2 66919  50.0055 130.4852 0007845 280.5711  79.4311 14.05714074   456
HULIANWANG DIGUI 14F    
1 66920U 25285F   25343.50130127  .00000071  00000+0  13557-3 0  9992
2 66920  50.0088 130.4870 0005825 277.5630  82.4614 14.05849245   455
HULIANWANG DIGUI 14G    
1 66921U 25285G   25343.50122244 -.00000131  00000+0  13129-4 0  9998
2 66921  50.0105 130.4882 0006958 284.1176  75.8956 14.05882346   450
HULIANWANG DIGUI 14H    
1 66922U 25285H   25343.50097100 -.00000166  00000+0 -80754-5 0  9999
2 66922  50.0078 130.4835 0006915 290.3386  69.6776 14.05997664   454
HULIANWANG DIGUI 14J    
1 66923U 25285J   25341.93723132 -.00000153  00000+0 -47305-6 0  9998
2 66923  50.0075 136.8754 0005387 280.8946  79.1354 14.06515715   238
CZ-8A R/B               
1 66924U 25285K   25343.44781561 -.00000053  00000+0  40197-4 0  9995
2 66924  50.0062 130.1671 0119336  95.1243 266.3306 14.30499385   459
